HAWK-A                  
1 43765U 18099H   26068.67628545  .00008617  00000+0  36104-3 0  9995
2 43765  97.4051 122.2425 0034260 275.5523  84.1807 15.23231043397949
STARLINK-31835          
1 59772U 24091V   26068.29297188  .00001897  00000+0  76158-4 0  9999
2 59772  53.1617  28.7235 0001282  92.4836 267.6311 15.30196188102941
